ONEWEB-0615             
1 54676U 22166AL  25275.05139422 -.00000013  00000+0 -63883-4 0  9999
2 54676  87.9183 295.5011 0001894  92.3037 267.8314 13.21824762137340
ONEWEB-0655             
1 54677U 22166AM  25275.10027904  .00000070  00000+0  13865-3 0  9992
2 54677  87.9179 295.4962 0001626  86.5763 273.5557 13.21830319137342
ONEWEB-0659             
1 54678U 22166AN  25275.04193591  .00000077  00000+0  15394-3 0  9998
2 54678  87.9181 295.5083 0002058  94.5038 265.6331 13.21825316137427
ONEWEB-0685             
1 54679U 22166AP  25275.11917058  .00000006  00000+0 -17549-4 0  9997
2 54679  87.9181 295.4891 0001889  83.7098 276.4251 13.21828875137324
ONEWEB-0712             
1 54680U 22166AQ  25275.05033398 -.00000032  00000+0 -11708-3 0  9998
2 54680  87.8983 280.2034 0001321  88.4881 271.6401 13.16592954138098
ONEWEB-0714             
1 54681U 22166AR  25275.04981610 -.00000013  00000+0 -62702-4 0  9997
2 54681  87.9182 295.4965 0001784  87.4267 272.7071 13.21824304137437
ONEWEB-0532             
1 55140U 23004A   25275.15412225 -.00000025  00000+0 -97637-4 0  9991
2 55140  87.9083  57.1726 0002109  90.0223 270.1150 13.17648337133600
ONEWEB-0533             
1 55141U 23004B   25274.78472283 -.00000239  00000+0 -69888-3 0  9993
2 55141  87.8941  41.9956 0001582  92.8791 267.2518 13.12443967134167
ONEWEB-0541             
1 55142U 23004C   25275.14661248 -.00000235  00000+0 -69829-3 0  9997
2 55142  87.8796  72.4432 0001845  95.4567 264.6771 13.11413306132125
ONEWEB-0543             
1 55143U 23004D   25275.03196854  .00000026  00000+0  32780-4 0  9995
2 55143  87.9197  26.7707 0001507 103.1182 257.0118 13.18686740135679
ONEWEB-0544             
1 55144U 23004E   25275.02536715  .00000001  00000+0 -31007-4 0  9994
2 55144  87.9198  26.7621 0001718 107.3489 252.7831 13.18685720135677
ONEWEB-0560             
1 55145U 23004F   25275.01876983 -.00000013  00000+0 -65368-4 0  9999
2 55145  87.9210  26.7435 0001746 109.4236 250.7085 13.18685848135681
ONEWEB-0565             
1 55146U 23004G   25275.01216044  .00000043  00000+0  75656-4 0  9998
2 55146  87.9200  26.7978 0002250 107.8175 252.3202 13.18688108135678
ONEWEB-0567             
1 55147U 23004H   25275.00556250  .00000045  00000+0  80826-4 0  9991
2 55147  87.9205  26.7603 0002018 110.2527 249.8822 13.18688250135677
ONEWEB-0569             
1 55148U 23004J   25274.99459582 -.00000289  00000+0 -82640-3 0  9996
2 55148  87.9052  11.5036 0002133 128.8536 231.2783 13.13468182136287
ONEWEB-0570             
1 55149U 23004K   25275.07155535 -.00000045  00000+0 -14630-3 0  9992
2 55149  87.9206  26.7472 0002361  97.4985 262.6415 13.18685968135673
ONEWEB-0571             
1 55150U 23004L   25275.06494904 -.00000076  00000+0 -22525-3 0  9995
2 55150  87.9195  26.7528 0002887 121.4929 238.6485 13.18689630135684
