[{"OBJECT_NAME":"ONEWEB-0615","OBJECT_ID":"2022-166AL","EPOCH":"2025-10-02T01:14:00.460608","MEAN_MOTION":13.21824762,"ECCENTRICITY":0.0001894,"INCLINATION":87.9183,"RA_OF_ASC_NODE":295.5011,"ARG_OF_PERICENTER":92.3037,"MEAN_ANOMALY":267.8314,"EPHEMERIS_TYPE":0,"CLASSIFICATION_TYPE":"U","NORAD_CAT_ID":54676,"ELEMENT_SET_NO":999,"REV_AT_EPOCH":13734,"BSTAR":-6.3883e-5,"MEAN_MOTION_DOT":-1.3e-7,"MEAN_MOTION_DDOT":0},{"OBJECT_NAME":"ONEWEB-0655","OBJECT_ID":"2022-166AM","EPOCH":"2025-10-02T02:24:24.109056","MEAN_MOTION":13.21830319,"ECCENTRICITY":0.0001626,"INCLINATION":87.9179,"RA_OF_ASC_NODE":295.4962,"ARG_OF_PERICENTER":86.5763,"MEAN_ANOMALY":273.5557,"EPHEMERIS_TYPE":0,"CLASSIFICATION_TYPE":"U","NORAD_CAT_ID":54677,"ELEMENT_SET_NO":999,"REV_AT_EPOCH":13734,"BSTAR":0.00013865,"MEAN_MOTION_DOT":7.0e-7,"MEAN_MOTION_DDOT":0},{"OBJECT_NAME":"ONEWEB-0659","OBJECT_ID":"2022-166AN","EPOCH":"2025-10-02T01:00:23.262624","MEAN_MOTION":13.21825316,"ECCENTRICITY":0.0002058,"INCLINATION":87.9181,"RA_OF_ASC_NODE":295.5083,"ARG_OF_PERICENTER":94.5038,"MEAN_ANOMALY":265.6331,"EPHEMERIS_TYPE":0,"CLASSIFICATION_TYPE":"U","NORAD_CAT_ID":54678,"ELEMENT_SET_NO":999,"REV_AT_EPOCH":13742,"BSTAR":0.00015394,"MEAN_MOTION_DOT":7.7e-7,"MEAN_MOTION_DDOT":0},{"OBJECT_NAME":"ONEWEB-0685","OBJECT_ID":"2022-166AP","EPOCH":"2025-10-02T02:51:36.338112","MEAN_MOTION":13.21828875,"ECCENTRICITY":0.0001889,"INCLINATION":87.9181,"RA_OF_ASC_NODE":295.4891,"ARG_OF_PERICENTER":83.7098,"MEAN_ANOMALY":276.4251,"EPHEMERIS_TYPE":0,"CLASSIFICATION_TYPE":"U","NORAD_CAT_ID":54679,"ELEMENT_SET_NO":999,"REV_AT_EPOCH":13732,"BSTAR":-1.7549e-5,"MEAN_MOTION_DOT":6.0e-8,"MEAN_MOTION_DDOT":0},{"OBJECT_NAME":"ONEWEB-0712","OBJECT_ID":"2022-166AQ","EPOCH":"2025-10-02T01:12:28.855872","MEAN_MOTION":13.16592954,"ECCENTRICITY":0.0001321,"INCLINATION":87.8983,"RA_OF_ASC_NODE":280.2034,"ARG_OF_PERICENTER":88.4881,"MEAN_ANOMALY":271.6401,"EPHEMERIS_TYPE":0,"CLASSIFICATION_TYPE":"U","NORAD_CAT_ID":54680,"ELEMENT_SET_NO":999,"REV_AT_EPOCH":13809,"BSTAR":-0.00011708,"MEAN_MOTION_DOT":-3.2e-7,"MEAN_MOTION_DDOT":0},{"OBJECT_NAME":"ONEWEB-0714","OBJECT_ID":"2022-166AR","EPOCH":"2025-10-02T01:11:44.111040","MEAN_MOTION":13.21824304,"ECCENTRICITY":0.0001784,"INCLINATION":87.9182,"RA_OF_ASC_NODE":295.4965,"ARG_OF_PERICENTER":87.4267,"MEAN_ANOMALY":272.7071,"EPHEMERIS_TYPE":0,"CLASSIFICATION_TYPE":"U","NORAD_CAT_ID":54681,"ELEMENT_SET_NO":999,"REV_AT_EPOCH":13743,"BSTAR":-6.2702e-5,"MEAN_MOTION_DOT":-1.3e-7,"MEAN_MOTION_DDOT":0},{"OBJECT_NAME":"ONEWEB-0532","OBJECT_ID":"2023-004A","EPOCH":"2025-10-02T03:41:56.162400","MEAN_MOTION":13.17648337,"ECCENTRICITY":0.0002109,"INCLINATION":87.9083,"RA_OF_ASC_NODE":57.1726,"ARG_OF_PERICENTER":90.0223,"MEAN_ANOMALY":270.115,"EPHEMERIS_TYPE":0,"CLASSIFICATION_TYPE":"U","NORAD_CAT_ID":55140,"ELEMENT_SET_NO":999,"REV_AT_EPOCH":13360,"BSTAR":-9.7637e-5,"MEAN_MOTION_DOT":-2.5e-7,"MEAN_MOTION_DDOT":0},{"OBJECT_NAME":"ONEWEB-0533","OBJECT_ID":"2023-004B","EPOCH":"2025-10-01T18:50:00.052512","MEAN_MOTION":13.12443967,"ECCENTRICITY":0.00015823,"INCLINATION":87.8941,"RA_OF_ASC_NODE":41.9956,"ARG_OF_PERICENTER":92.8791,"MEAN_ANOMALY":267.2518,"EPHEMERIS_TYPE":0,"CLASSIFICATION_TYPE":"U","NORAD_CAT_ID":55141,"ELEMENT_SET_NO":999,"REV_AT_EPOCH":13416,"BSTAR":-0.00069887881,"MEAN_MOTION_DOT":-2.39e-6,"MEAN_MOTION_DDOT":0},{"OBJECT_NAME":"ONEWEB-0541","OBJECT_ID":"2023-004C","EPOCH":"2025-10-02T03:31:07.318272","MEAN_MOTION":13.11413306,"ECCENTRICITY":0.0001845,"INCLINATION":87.8796,"RA_OF_ASC_NODE":72.4432,"ARG_OF_PERICENTER":95.4567,"MEAN_ANOMALY":264.6771,"EPHEMERIS_TYPE":0,"CLASSIFICATION_TYPE":"U","NORAD_CAT_ID":55142,"ELEMENT_SET_NO":999,"REV_AT_EPOCH":13212,"BSTAR":-0.00069829,"MEAN_MOTION_DOT":-2.35e-6,"MEAN_MOTION_DDOT":0},{"OBJECT_NAME":"ONEWEB-0543","OBJECT_ID":"2023-004D","EPOCH":"2025-10-02T00:46:02.081856","MEAN_MOTION":13.1868674,"ECCENTRICITY":0.0001507,"INCLINATION":87.9197,"RA_OF_ASC_NODE":26.7707,"ARG_OF_PERICENTER":103.1182,"MEAN_ANOMALY":257.0118,"EPHEMERIS_TYPE":0,"CLASSIFICATION_TYPE":"U","NORAD_CAT_ID":55143,"ELEMENT_SET_NO":999,"REV_AT_EPOCH":13567,"BSTAR":3.278e-5,"MEAN_MOTION_DOT":2.6e-7,"MEAN_MOTION_DDOT":0},{"OBJECT_NAME":"ONEWEB-0544","OBJECT_ID":"2023-004E","EPOCH":"2025-10-02T00:36:31.721760","MEAN_MOTION":13.1868572,"ECCENTRICITY":0.0001718,"INCLINATION":87.9198,"RA_OF_ASC_NODE":26.7621,"ARG_OF_PERICENTER":107.3489,"MEAN_ANOMALY":252.7831,"EPHEMERIS_TYPE":0,"CLASSIFICATION_TYPE":"U","NORAD_CAT_ID":55144,"ELEMENT_SET_NO":999,"REV_AT_EPOCH":13567,"BSTAR":-3.1007e-5,"MEAN_MOTION_DOT":1.0e-8,"MEAN_MOTION_DDOT":0},{"OBJECT_NAME":"ONEWEB-0560","OBJECT_ID":"2023-004F","EPOCH":"2025-10-02T00:27:01.713312","MEAN_MOTION":13.18685848,"ECCENTRICITY":0.0001746,"INCLINATION":87.921,"RA_OF_ASC_NODE":26.7435,"ARG_OF_PERICENTER":109.4236,"MEAN_ANOMALY":250.7085,"EPHEMERIS_TYPE":0,"CLASSIFICATION_TYPE":"U","NORAD_CAT_ID":55145,"ELEMENT_SET_NO":999,"REV_AT_EPOCH":13568,"BSTAR":-6.5368e-5,"MEAN_MOTION_DOT":-1.3e-7,"MEAN_MOTION_DDOT":0},{"OBJECT_NAME":"ONEWEB-0565","OBJECT_ID":"2023-004G","EPOCH":"2025-10-02T00:17:30.662016","MEAN_MOTION":13.18688108,"ECCENTRICITY":0.000225,"INCLINATION":87.92,"RA_OF_ASC_NODE":26.7978,"ARG_OF_PERICENTER":107.8175,"MEAN_ANOMALY":252.3202,"EPHEMERIS_TYPE":0,"CLASSIFICATION_TYPE":"U","NORAD_CAT_ID":55146,"ELEMENT_SET_NO":999,"REV_AT_EPOCH":13567,"BSTAR":7.5656e-5,"MEAN_MOTION_DOT":4.3e-7,"MEAN_MOTION_DDOT":0},{"OBJECT_NAME":"ONEWEB-0567","OBJECT_ID":"2023-004H","EPOCH":"2025-10-02T00:08:00.600000","MEAN_MOTION":13.1868825,"ECCENTRICITY":0.0002018,"INCLINATION":87.9205,"RA_OF_ASC_NODE":26.7603,"ARG_OF_PERICENTER":110.2527,"MEAN_ANOMALY":249.8822,"EPHEMERIS_TYPE":0,"CLASSIFICATION_TYPE":"U","NORAD_CAT_ID":55147,"ELEMENT_SET_NO":999,"REV_AT_EPOCH":13567,"BSTAR":8.0826e-5,"MEAN_MOTION_DOT":4.5e-7,"MEAN_MOTION_DDOT":0},{"OBJECT_NAME":"ONEWEB-0569","OBJECT_ID":"2023-004J","EPOCH":"2025-10-01T23:52:13.078848","MEAN_MOTION":13.13468182,"ECCENTRICITY":0.0002133,"INCLINATION":87.9052,"RA_OF_ASC_NODE":11.5036,"ARG_OF_PERICENTER":128.8536,"MEAN_ANOMALY":231.2783,"EPHEMERIS_TYPE":0,"CLASSIFICATION_TYPE":"U","NORAD_CAT_ID":55148,"ELEMENT_SET_NO":999,"REV_AT_EPOCH":13628,"BSTAR":-0.0008264,"MEAN_MOTION_DOT":-2.89e-6,"MEAN_MOTION_DDOT":0},{"OBJECT_NAME":"ONEWEB-0570","OBJECT_ID":"2023-004K","EPOCH":"2025-10-02T01:43:02.382240","MEAN_MOTION":13.18685968,"ECCENTRICITY":0.0002361,"INCLINATION":87.9206,"RA_OF_ASC_NODE":26.7472,"ARG_OF_PERICENTER":97.4985,"MEAN_ANOMALY":262.6415,"EPHEMERIS_TYPE":0,"CLASSIFICATION_TYPE":"U","NORAD_CAT_ID":55149,"ELEMENT_SET_NO":999,"REV_AT_EPOCH":13567,"BSTAR":-0.0001463,"MEAN_MOTION_DOT":-4.5e-7,"MEAN_MOTION_DDOT":0},{"OBJECT_NAME":"ONEWEB-0571","OBJECT_ID":"2023-004L","EPOCH":"2025-10-02T01:33:31.597056","MEAN_MOTION":13.1868963,"ECCENTRICITY":0.0002887,"INCLINATION":87.9195,"RA_OF_ASC_NODE":26.7528,"ARG_OF_PERICENTER":121.4929,"MEAN_ANOMALY":238.6485,"EPHEMERIS_TYPE":0,"CLASSIFICATION_TYPE":"U","NORAD_CAT_ID":55150,"ELEMENT_SET_NO":999,"REV_AT_EPOCH":13568,"BSTAR":-0.00022525,"MEAN_MOTION_DOT":-7.6e-7,"MEAN_MOTION_DDOT":0}]
